{
  "norad_id": 66541,
  "name": "STARLINK-35796",
  "history": [
    {
      "epoch": "2026-03-28T22:09:00.158400Z",
      "apogee_km": 483.946809207413,
      "perigee_km": 482.04764725303903,
      "latitude_deg": 1.1250210708553e-05,
      "longitude_deg": 10.835646076594701,
      "height_km": 482.3870532411056,
      "semi_major_axis_km": 6861.134228230226,
      "eccentricity": 0.0001384,
      "inclination_deg": 43.0062,
      "raan_deg": 169.4227,
      "arg_perigee_deg": 294.0843,
      "mean_anomaly_deg": 65.9864,
      "mean_motion_rev_day": 15.27597322
    }
  ]
}